{
  "norad_id": 57954,
  "name": "STARLINK-30703",
  "history": [
    {
      "epoch": "2026-03-28T19:58:11.919360Z",
      "apogee_km": 475.91514440702304,
      "perigee_km": 474.53638488603247,
      "latitude_deg": 1.439399660091993e-06,
      "longitude_deg": 159.4590633349179,
      "height_km": 476.1120924693433,
      "semi_major_axis_km": 6853.3627646465275,
      "eccentricity": 0.00010059,
      "inclination_deg": 53.1613,
      "raan_deg": 285.2556,
      "arg_perigee_deg": 88.9824,
      "mean_anomaly_deg": 271.1292,
      "mean_motion_rev_day": 15.30196418
    }
  ]
}