{"fetched_at":"2026-03-30T06:02:59Z","count":15439,"tles":[{"name":"STARLINK-30703","line1":"1 57954U 23148V   26087.83208240  .00000283  00000+0  21666-4 0  9995","line2":"2 57954  53.1613 285.2556 0001005  88.9824 271.1292 15.30196418141490","category":"Starlink"}]}